FLOCK 4G-5              
1 62663U 25009BG  26068.45638436  .00011278  00000+0  40688-3 0  9997
2 62663  97.4058 151.2478 0002094 314.5072  45.5996 15.28679529 63699
STARLINK-36503          
1 67411U 26005H   26068.46708490  .00027643  00000+0  10101-2 0  9998
2 67411  42.9979 239.1310 0000710 206.9075 153.1740 15.27585072  8660
